{
  "type": "FeatureCollection",
  "features": [
    {
      "type": "Feature",
      "properties": {
        "norad_id": 40128,
        "name": "GSAT0201 (GALILEO 5)",
        "group": "gnss",
        "lat": -44.879079809695995,
        "lon": -138.35276065616947,
        "alt_km": 23208.494280615567,
        "timestamp": "2025-12-07T22:37:43.321604+00:00",
        "meta_object_name": "GSAT0201 (GALILEO 5)",
        "meta_object_id": "2014-050A",
        "meta_epoch": "2025-12-06T23:58:24.264480",
        "meta_mean_motion": 1.8551948,
        "meta_eccentricity": 0.16473853,
        "meta_inclination": 49.0835,
        "meta_ra_of_asc_node": 281.2976,
        "meta_arg_of_pericenter": 172.0659,
        "meta_mean_anomaly": 190.9433,
        "meta_ephemeris_type": 0,
        "meta_classification_type": "U",
        "meta_norad_cat_id": 40128,
        "meta_element_set_no": 999,
        "meta_rev_at_epoch": 7475,
        "meta_bstar": 0,
        "meta_mean_motion_dot": -5.7e-07,
        "meta_mean_motion_ddot": 0,
        "tle_line1": "1 40128U 14050A   25340.99889195 -.00000057  00000+0  00000+0 0  9998",
        "tle_line2": "2 40128  49.0835 281.2976 1647385 172.0659 190.9433  1.85519480 74758"
      },
      "geometry": {
        "type": "Point",
        "coordinates": [
          -138.35276065616947,
          -44.879079809695995
        ]
      }
    },
    {
      "type": "Feature",
      "properties": {
        "norad_id": 40129,
        "name": "GSAT0202 (GALILEO 6)",
        "group": "gnss",
        "lat": 48.66522219623662,
        "lon": 0.09225110218937375,
        "alt_km": 20793.478812362424,
        "timestamp": "2025-12-07T22:37:43.321615+00:00",
        "meta_object_name": "GSAT0202 (GALILEO 6)",
        "meta_object_id": "2014-050B",
        "meta_epoch": "2025-12-06T04:15:08.981856",
        "meta_mean_motion": 1.85520222,
        "meta_eccentricity": 0.16479377,
        "meta_inclination": 49.1003,
        "meta_ra_of_asc_node": 280.4147,
        "meta_arg_of_pericenter": 172.7832,
        "meta_mean_anomaly": 189.9608,
        "meta_ephemeris_type": 0,
        "meta_classification_type": "U",
        "meta_norad_cat_id": 40129,
        "meta_element_set_no": 999,
        "meta_rev_at_epoch": 7690,
        "meta_bstar": 0,
        "meta_mean_motion_dot": -5.4e-07,
        "meta_mean_motion_ddot": 0,
        "tle_line1": "1 40129U 14050B   25340.17718729 -.00000054  00000+0  00000+0 0  9990",
        "tle_line2": "2 40129  49.1003 280.4147 1647937 172.7832 189.9608  1.85520222 76908"
      },
      "geometry": {
        "type": "Point",
        "coordinates": [
          0.09225110218937375,
          48.66522219623662
        ]
      }
    },
    {
      "type": "Feature",
      "properties": {
        "norad_id": 40269,
        "name": "IRNSS-1C",
        "group": "gnss",
        "lat": 4.400773943344145,
        "lon": 139.3032855612498,
        "alt_km": 35732.375947361994,
        "timestamp": "2025-12-07T22:37:43.321630+00:00",
        "meta_object_name": "IRNSS-1C",
        "meta_object_id": "2014-061A",
        "meta_epoch": "2025-12-06T20:54:30.066048",
        "meta_mean_motion": 1.0026867,
        "meta_eccentricity": 0.00178144,
        "meta_inclination": 6.026,
        "meta_ra_of_asc_node": 92.7398,
        "meta_arg_of_pericenter": 2.5775,
        "meta_mean_anomaly": 17.1506,
        "meta_ephemeris_type": 0,
        "meta_classification_type": "U",
        "meta_norad_cat_id": 40269,
        "meta_element_set_no": 999,
        "meta_rev_at_epoch": 4076,
        "meta_bstar": 0,
        "meta_mean_motion_dot": -1.57e-06,
        "meta_mean_motion_ddot": 0,
        "tle_line1": "1 40269U 14061A   25340.87118132 -.00000157  00000+0  00000+0 0  9990",
        "tle_line2": "2 40269   6.0260  92.7398 0017814   2.5775  17.1506  1.00268670 40769"
      },
      "geometry": {
        "type": "Point",
        "coordinates": [
          139.3032855612498,
          4.400773943344145
        ]
      }
    },
    {
      "type": "Feature",
      "properties": {
        "norad_id": 40294,
        "name": "GPS BIIF-8  (PRN 03)",
        "group": "gnss",
        "lat": -17.55115259973971,
        "lon": 26.433554830201267,
        "alt_km": 20184.761245267866,
        "timestamp": "2025-12-07T22:37:43.321642+00:00",
        "meta_object_name": "GPS BIIF-8  (PRN 03)",
        "meta_object_id": "2014-068A",
        "meta_epoch": "2025-12-05T23:27:53.798400",
        "meta_mean_motion": 2.00564264,
        "meta_eccentricity": 0.00608121,
        "meta_inclination": 56.8528,
        "meta_ra_of_asc_node": 38.4077,
        "meta_arg_of_pericenter": 69.3337,
        "meta_mean_anomaly": 291.3749,
        "meta_ephemeris_type": 0,
        "meta_classification_type": "U",
        "meta_norad_cat_id": 40294,
        "meta_element_set_no": 999,
        "meta_rev_at_epoch": 8133,
        "meta_bstar": 0,
        "meta_mean_motion_dot": -6.8e-07,
        "meta_mean_motion_ddot": 0,
        "tle_line1": "1 40294U 14068A   25339.97770600 -.00000068  00000+0  00000+0 0  9999",
        "tle_line2": "2 40294  56.8528  38.4077 0060812  69.3337 291.3749  2.00564264 81331"
      },
      "geometry": {
        "type": "Point",
        "coordinates": [
          26.433554830201267,
          -17.55115259973971
        ]
      }
    },
    {
      "type": "Feature",
      "properties": {
        "norad_id": 40315,
        "name": "COSMOS 2501 (702K)",
        "group": "gnss",
        "lat": 60.52098349711451,
        "lon": -101.56818659942087,
        "alt_km": 19155.041114088162,
        "timestamp": "2025-12-07T22:37:43.321653+00:00",
        "meta_object_name": "COSMOS 2501 (702K)",
        "meta_object_id": "2014-075A",
        "meta_epoch": "2025-12-06T21:42:23.948640",
        "meta_mean_motion": 2.13101325,
        "meta_eccentricity": 0.002014,
        "meta_inclination": 63.6139,
        "meta_ra_of_asc_node": 197.0273,
        "meta_arg_of_pericenter": 204.5326,
        "meta_mean_anomaly": 155.4549,
        "meta_ephemeris_type": 0,
        "meta_classification_type": "U",
        "meta_norad_cat_id": 40315,
        "meta_element_set_no": 999,
        "meta_rev_at_epoch": 8575,
        "meta_bstar": 0,
        "meta_mean_motion_dot": 6.6e-07,
        "meta_mean_motion_ddot": 0,
        "tle_line1": "1 40315U 14075A   25340.90444385  .00000066  00000+0  00000+0 0  9991",
        "tle_line2": "2 40315  63.6139 197.0273 0020140 204.5326 155.4549  2.13101325 85757"
      },
      "geometry": {
        "type": "Point",
        "coordinates": [
          -101.56818659942087,
          60.52098349711451
        ]
      }
    },
    {
      "type": "Feature",
      "properties": {
        "norad_id": 40534,
        "name": "GPS BIIF-9  (PRN 26)",
        "group": "gnss",
        "lat": -46.666068005164995,
        "lon": 84.58170643198447,
        "alt_km": 20440.222714846528,
        "timestamp": "2025-12-07T22:37:43.321665+00:00",
        "meta_object_name": "GPS BIIF-9  (PRN 26)",
        "meta_object_id": "2015-013A",
        "meta_epoch": "2025-12-06T14:33:06.415200",
        "meta_mean_motion": 2.0056283,
        "meta_eccentricity": 0.010678,
        "meta_inclination": 53.1987,
        "meta_ra_of_asc_node": 212.1443,
        "meta_arg_of_pericenter": 38.3324,
        "meta_mean_anomaly": 322.5165,
        "meta_ephemeris_type": 0,
        "meta_classification_type": "U",
        "meta_norad_cat_id": 40534,
        "meta_element_set_no": 999,
        "meta_rev_at_epoch": 7796,
        "meta_bstar": 0,
        "meta_mean_motion_dot": 4.8e-07,
        "meta_mean_motion_ddot": 0,
        "tle_line1": "1 40534U 15013A   25340.60632425  .00000048  00000+0  00000+0 0  9998",
        "tle_line2": "2 40534  53.1987 212.1443 0106780  38.3324 322.5165  2.00562830 77962"
      },
      "geometry": {
        "type": "Point",
        "coordinates": [
          84.58170643198447,
          -46.666068005164995
        ]
      }
    },
    {
      "type": "Feature",
      "properties": {
        "norad_id": 40544,
        "name": "GSAT0203 (GALILEO 7)",
        "group": "gnss",
        "lat": -22.070388224213964,
        "lon": -28.56051555971951,
        "alt_km": 23216.408798943427,
        "timestamp": "2025-12-07T22:37:43.321677+00:00",
        "meta_object_name": "GSAT0203 (GALILEO 7)",
        "meta_object_id": "2015-017A",
        "meta_epoch": "2025-12-05T01:16:54.709536",
        "meta_mean_motion": 1.70475832,
        "meta_eccentricity": 0.00065103,
        "meta_inclination": 56.8481,
        "meta_ra_of_asc_node": 346.8898,
        "meta_arg_of_pericenter": 269.6279,
        "meta_mean_anomaly": 90.3257,
        "meta_ephemeris_type": 0,
        "meta_classification_type": "U",
        "meta_norad_cat_id": 40544,
        "meta_element_set_no": 999,
        "meta_rev_at_epoch": 6589,
        "meta_bstar": 0,
        "meta_mean_motion_dot": -7.5e-07,
        "meta_mean_motion_ddot": 0,
        "tle_line1": "1 40544U 15017A   25339.05341099 -.00000075  00000+0  00000+0 0  9995",
        "tle_line2": "2 40544  56.8481 346.8898 0006510 269.6279  90.3257  1.70475832 65891"
      },
      "geometry": {
        "type": "Point",
        "coordinates": [
          -28.56051555971951,
          -22.070388224213964
        ]
      }
    }
  ]
}